CTC2_L_00212001-01
1 30036U 22810OM  26070.40844907  .00000000  00000+0  00000-0 0  9995
2 30036  50.0000   0.0000 0000000   0.0000   0.0000 14.33516687    14
CTC2_L_00212001-02
1 30037U 24173OT  26070.40844907  .00000000  00000+0  00000-0 0  9990
2 30037  50.0000   0.0000 0000000   0.0000  90.0000 14.33516687    14
CTC2_L_00212001-03
1 30038U 26989KA  26070.40844907  .00000000  00000+0  00000-0 0  9998
2 30038  50.0000   0.0000 0000000   0.0000 180.0000 14.33516687    15
CTC2_L_00212001-04
1 30039U 25531DE  26070.40844907  .00000000  00000+0  00000-0 0  9991
2 30039  50.0000   0.0000 0000000   0.0000 270.0000 14.33516687    16
CTC2_L_00212002-01
1 30040U 26426YS  26070.40844907  .00000000  00000+0  00000-0 0  9997
2 30040  50.0000  12.0000 0000000   0.0000  12.0000 14.33516687    15
CTC2_L_00212002-02
1 30041U 22492AX  26070.40844907  .00000000  00000+0  00000-0 0  9997
2 30041  50.0000  12.0000 0000000   0.0000 102.0000 14.33516687    16
CTC2_L_00212002-03
1 30042U 25782FO  26070.40844907  .00000000  00000+0  00000-0 0  9993
2 30042  50.0000  12.0000 0000000   0.0000 192.0000 14.33516687    16
CTC2_L_00212002-04
1 30043U 25464HX  26070.40844907  .00000000  00000+0  00000-0 0  9991
2 30043  50.0000  12.0000 0000000   0.0000 282.0000 14.33516687    17
CTC2_L_00212003-01
1 30044U 24022XP  26070.40844907  .00000000  00000+0  00000-0 0  9991
2 30044  50.0000  24.0000 0000000   0.0000  24.0000 14.33516687    15
CTC2_L_00212003-02
1 30045U 22669M   26070.40844907  .00000000  00000+0  00000-0 0  9997
2 30045  50.0000  24.0000 0000000   0.0000 114.0000 14.33516687    16
CTC2_L_00212003-03
1 30046U 24702VR  26070.40844907  .00000000  00000+0  00000-0 0  9998
2 30046  50.0000  24.0000 0000000   0.0000 204.0000 14.33516687    17
CTC2_L_00212003-04
1 30047U 25748GE  26070.40844907  .00000000  00000+0  00000-0 0  9990
2 30047  50.0000  24.0000 0000000   0.0000 294.0000 14.33516687    17
CTC2_L_00212004-01
1 30048U 22222YO  26070.40844907  .00000000  00000+0  00000-0 0  9995
2 30048  50.0000  36.0000 0000000   0.0000  36.0000 14.33516687    15
CTC2_L_00212004-02
1 30049U 23930LS  26070.40844907  .00000000  00000+0  00000-0 0  9993
2 30049  50.0000  36.0000 0000000   0.0000 126.0000 14.33516687    16
CTC2_L_00212004-03
1 30050U 25791AZ  26070.40844907  .00000000  00000+0  00000-0 0  9992
2 30050  50.0000  36.0000 0000000   0.0000 216.0000 14.33516687    18
CTC2_L_00212004-04
1 30051U 23049AW  26070.40844907  .00000000  00000+0  00000-0 0  9997
2 30051  50.0000  36.0000 0000000   0.0000 306.0000 14.33516687    19
CTC2_L_00212005-01
1 30052U 23882AW  26070.40844907  .00000000  00000+0  00000-0 0  9993
2 30052  50.0000  48.0000 0000000   0.0000  48.0000 14.33516687    16
CTC2_L_00212005-02
1 30053U 23942WZ  26070.40844907  .00000000  00000+0  00000-0 0  9991
2 30053  50.0000  48.0000 0000000   0.0000 138.0000 14.33516687    17
CTC2_L_00212005-03
1 30054U 26927NY  26070.40844907  .00000000  00000+0  00000-0 0  9998
2 30054  50.0000  48.0000 0000000   0.0000 228.0000 14.33516687    18
CTC2_L_00212005-04
1 30055U 25162NF  26070.40844907  .00000000  00000+0  00000-0 0  9999
2 30055  50.0000  48.0000 0000000   0.0000 318.0000 14.33516687    19
CTC2_L_00212006-01
1 30056U 26663OD  26070.40844907  .00000000  00000+0  00000-0 0  9997
2 30056  50.0000  60.0000 0000000   0.0000  60.0000 14.33516687    18
CTC2_L_00212006-02
1 30057U 22295QX  26070.40844907  .00000000  00000+0  00000-0 0  9995
2 30057  50.0000  60.0000 0000000   0.0000 150.0000 14.33516687    19
CTC2_L_00212006-03
1 30058U 22704HL  26070.40844907  .00000000  00000+0  00000-0 0  9991
2 30058  50.0000  60.0000 0000000   0.0000 240.0000 14.33516687    10
CTC2_L_00212006-04
1 30059U 26952CV  26070.40844907  .00000000  00000+0  00000-0 0  9991
2 30059  50.0000  60.0000 0000000   0.0000 330.0000 14.33516687    11
CTC2_L_00212007-01
1 30060U 22446MW  26070.40844907  .00000000  00000+0  00000-0 0  9997
2 30060  50.0000  72.0000 0000000   0.0000  72.0000 14.33516687    19
CTC2_L_00212007-02
1 30061U 24881KR  26070.40844907  .00000000  00000+0  00000-0 0  9993
2 30061  50.0000  72.0000 0000000   0.0000 162.0000 14.33516687    10
CTC2_L_00212007-03
1 30062U 22981EY  26070.40844907  .00000000  00000+0  00000-0 0  9993
2 30062  50.0000  72.0000 0000000   0.0000 252.0000 14.33516687    11
CTC2_L_00212007-04
1 30063U 26850CH  26070.40844907  .00000000  00000+0  00000-0 0  9993
2 30063  50.0000  72.0000 0000000   0.0000 342.0000 14.33516687    12
CTC2_L_00212008-01
1 30064U 23651TE  26070.40844907  .00000000  00000+0  00000-0 0  9990
2 30064  50.0000  84.0000 0000000   0.0000  84.0000 14.33516687    19
CTC2_L_00212008-02
1 30065U 22765QM  26070.40844907  .00000000  00000+0  00000-0 0  9996
2 30065  50.0000  84.0000 0000000   0.0000 174.0000 14.33516687    10
CTC2_L_00212008-03
1 30066U 26744QH  26070.40844907  .00000000  00000+0  00000-0 0  9998
2 30066  50.0000  84.0000 0000000   0.0000 264.0000 14.33516687    11
CTC2_L_00212008-04
1 30067U 25852IA  26070.40844907  .00000000  00000+0  00000-0 0  9998
2 30067  50.0000  84.0000 0000000   0.0000 354.0000 14.33516687    12
CTC2_L_00212009-01
1 30068U 24786GU  26070.40844907  .00000000  00000+0  00000-0 0  9994
2 30068  50.0000  96.0000 0000000   0.0000  96.0000 14.33516687    19
CTC2_L_00212009-02
1 30069U 25554OO  26070.40844907  .00000000  00000+0  00000-0 0  9999
2 30069  50.0000  96.0000 0000000   0.0000 186.0000 14.33516687    10
CTC2_L_00212009-03
1 30070U 24748XP  26070.40844907  .00000000  00000+0  00000-0 0  9995
2 30070  50.0000  96.0000 0000000   0.0000 276.0000 14.33516687    12
CTC2_L_00212009-04
1 30071U 26161RF  26070.40844907  .00000000  00000+0  00000-0 0  9997
2 30071  50.0000  96.0000 0000000   0.0000   6.0000 14.33516687    14
CTC2_L_00212010-01
1 30072U 26853SB  26070.40844907  .00000000  00000+0  00000-0 0  9996
2 30072  50.0000 108.0000 0000000   0.0000 108.0000 14.33516687    12
CTC2_L_00212010-02
1 30073U 26503QP  26070.40844907  .00000000  00000+0  00000-0 0  9999
2 30073  50.0000 108.0000 0000000   0.0000 198.0000 14.33516687    12
CTC2_L_00212010-03
1 30074U 23612WW  26070.40844907  .00000000  00000+0  00000-0 0  9998
2 30074  50.0000 108.0000 0000000   0.0000 288.0000 14.33516687    13
CTC2_L_00212010-04
1 30075U 26074JU  26070.40844907  .00000000  00000+0  00000-0 0  9994
2 30075  50.0000 108.0000 0000000   0.0000  18.0000 14.33516687    15
CTC2_L_00212011-01
1 30076U 23758LK  26070.40844907  .00000000  00000+0  00000-0 0  9991
2 30076  50.0000 120.0000 0000000   0.0000 120.0000 14.33516687    14
CTC2_L_00212011-02
1 30077U 24554MJ  26070.40844907  .00000000  00000+0  00000-0 0  9997
2 30077  50.0000 120.0000 0000000   0.0000 210.0000 14.33516687    15
CTC2_L_00212011-03
1 30078U 26787MU  26070.40844907  .00000000  00000+0  00000-0 0  9998
2 30078  50.0000 120.0000 0000000   0.0000 300.0000 14.33516687    16
CTC2_L_00212011-04
1 30079U 25444MU  26070.40844907  .00000000  00000+0  00000-0 0  9998
2 30079  50.0000 120.0000 0000000   0.0000  30.0000 14.33516687    17
CTC2_L_00212012-01
1 30080U 25835IK  26070.40844907  .00000000  00000+0  00000-0 0  9994
2 30080  50.0000 132.0000 0000000   0.0000 132.0000 14.33516687    15
CTC2_L_00212012-02
1 30081U 23891EL  26070.40844907  .00000000  00000+0  00000-0 0  9995
2 30081  50.0000 132.0000 0000000   0.0000 222.0000 14.33516687    16
CTC2_L_00212012-03
1 30082U 24410NX  26070.40844907  .00000000  00000+0  00000-0 0  9994
2 30082  50.0000 132.0000 0000000   0.0000 312.0000 14.33516687    17
CTC2_L_00212012-04
1 30083U 24108FC  26070.40844907  .00000000  00000+0  00000-0 0  9999
2 30083  50.0000 132.0000 0000000   0.0000  42.0000 14.33516687    18
CTC2_L_00212013-01
1 30084U 22752ID  26070.40844907  .00000000  00000+0  00000-0 0  9993
2 30084  50.0000 144.0000 0000000   0.0000 144.0000 14.33516687    15
CTC2_L_00212013-02
1 30085U 25850WB  26070.40844907  .00000000  00000+0  00000-0 0  9996
2 30085  50.0000 144.0000 0000000   0.0000 234.0000 14.33516687    16
CTC2_L_00212013-03
1 30086U 24468YT  26070.40844907  .00000000  00000+0  00000-0 0  9991
2 30086  50.0000 144.0000 0000000   0.0000 324.0000 14.33516687    17
CTC2_L_00212013-04
1 30087U 26542SC  26070.40844907  .00000000  00000+0  00000-0 0  9997
2 30087  50.0000 144.0000 0000000   0.0000  54.0000 14.33516687    18
CTC2_L_00212014-01
1 30088U 22136HT  26070.40844907  .00000000  00000+0  00000-0 0  9993
2 30088  50.0000 156.0000 0000000   0.0000 156.0000 14.33516687    15
CTC2_L_00212014-02
1 30089U 23278BG  26070.40844907  .00000000  00000+0  00000-0 0  9992
2 30089  50.0000 156.0000 0000000   0.0000 246.0000 14.33516687    16
CTC2_L_00212014-03
1 30090U 25003OH  26070.40844907  .00000000  00000+0  00000-0 0  9992
2 30090  50.0000 156.0000 0000000   0.0000 336.0000 14.33516687    18
CTC2_L_00212014-04
1 30091U 26068EO  26070.40844907  .00000000  00000+0  00000-0 0  9995
2 30091  50.0000 156.0000 0000000   0.0000  66.0000 14.33516687    19
CTC2_L_00212015-01
1 30092U 23998AY  26070.40844907  .00000000  00000+0  00000-0 0  9995
2 30092  50.0000 168.0000 0000000   0.0000 168.0000 14.33516687    16
CTC2_L_00212015-02
1 30093U 23545YP  26070.40844907  .00000000  00000+0  00000-0 0  9994
2 30093  50.0000 168.0000 0000000   0.0000 258.0000 14.33516687    17
CTC2_L_00212015-03
1 30094U 24179VO  26070.40844907  .00000000  00000+0  00000-0 0  9999
2 30094  50.0000 168.0000 0000000   0.0000 348.0000 14.33516687    18
CTC2_L_00212015-04
1 30095U 25773RO  26070.40844907  .00000000  00000+0  00000-0 0  9991
2 30095  50.0000 168.0000 0000000   0.0000  78.0000 14.33516687    19
CTC2_L_00212016-01
1 30096U 25463AH  26070.40844907  .00000000  00000+0  00000-0 0  9998
2 30096  50.0000 180.0000 0000000   0.0000 180.0000 14.33516687    18
CTC2_L_00212016-02
1 30097U 23539OC  26070.40844907  .00000000  00000+0  00000-0 0  9991
2 30097  50.0000 180.0000 0000000   0.0000 270.0000 14.33516687    19
